IRIDIUM 150             
1 43257U 18030J   24263.55693916  .00000917  00000+0  32040-3 0  9992
2 43257  86.4035 196.1049 0002227  91.6362 268.5089 14.34220771339070
IRIDIUM 143             
1 43258U 18030K   24262.35183158  .00000858  00000+0  29941-3 0  9992
2 43258  86.4037 196.6751 0002282  89.1190 271.0267 14.34224388338816
IRIDIUM 161             
1 43478U 18047C   24263.54388420  .00001253  00000+0  36638-3 0  9996
2 43478  86.4550 354.1135 0002013  92.3235 267.8197 14.43283536333455
IRIDIUM 152             
1 43479U 18047D   24263.51062655  .00001284  00000+0  45137-3 0  9991
2 43479  86.4024 353.9866 0002200  94.2277 265.9170 14.34222261331372
IRIDIUM 147             
1 43480U 18047E   24263.30766853  .00000905  00000+0  31602-3 0  9992
2 43480  86.4027 354.0653 0002131  87.6659 272.4781 14.34217802331349
IRIDIUM 110             
1 43481U 18047F   24263.66285139  .00000081  00000+0  21789-4 0  9996
2 43481  86.4024 353.9920 0001882  83.7351 276.4059 14.34217282331388
IRIDIUM 162             
1 43482U 18047G   24263.53755960  .00001119  00000+0  32659-3 0  9997
2 43482  86.4549 354.0150 0001928  84.3936 275.7485 14.43282652333442
IRIDIUM 160             
1 43569U 18061A   24263.67845008  .00000048  00000+0  99604-5 0  9992
2 43569  86.3985 322.3768 0002286  87.9693 272.1765 14.34215808322282
